{
  "norad_id": 57107,
  "name": "STARLINK-6131",
  "history": [
    {
      "epoch": "2026-03-28T15:23:55.396032Z",
      "apogee_km": 560.1763175141787,
      "perigee_km": 557.9855440916308,
      "latitude_deg": -2.627267482757516e-05,
      "longitude_deg": 114.68151635318561,
      "height_km": 558.8627985619147,
      "semi_major_axis_km": 6937.217930802904,
      "eccentricity": 0.0001579,
      "inclination_deg": 43.0035,
      "raan_deg": 171.7215,
      "arg_perigee_deg": 269.8876,
      "mean_anomaly_deg": 90.1785,
      "mean_motion_rev_day": 15.02535546
    }
  ]
}