{"fetched_at":"2026-03-29T16:36:15Z","count":15609,"tles":[{"name":"STARLINK-6131","line1":"1 57107U 23090G   26087.64161338  .00000814  00000+0  75367-4 0  9993","line2":"2 57107  43.0035 171.7215 0001579 269.8876  90.1785 15.02535546153262","category":"Starlink"}]}